{
 "type": "FeatureCollection",
 "name": "Bar X Ranch 4-lot study parcels",
 "crs": {
  "type": "name",
  "properties": {
   "name": "urn:ogc:def:crs:OGC:1.3:CRS84"
  }
 },
 "source": "Brazoria County public ArcGIS, general/Parcels/MapServer/1 (BCAD parcel data) and general/Floodplain/MapServer, retrieved 11 September 2026",
 "features": [
  {
   "type": "Feature",
   "id": "lot1",
   "properties": {
    "lot": 1,
    "listing_name": "1127 Saddle Horn Bend",
    "asking_price_usd": 82500,
    "pid": 183667,
    "geo_id": "1534-0084-000",
    "situs_of_record": "1127 SADDLE HORN BEND",
    "legal_description": "BAR X RANCH SEC 2 (A0038 J B BAILEY) BLK 1 LOT 84 ACRES 1.95",
    "acres_of_record": 1.95,
    "gis_polygon_acres": 2.0,
    "bbox_ft": [
     316,
     460
    ],
    "bcad_appraised_usd": 65030,
    "deed_reference": "2008-031507",
    "subdivision": "Bar-X Ranch #2",
    "plat": "16/119 (17 Sep 1980)",
    "recorded_restrictions": "1532/471",
    "centroid": [
     29.141219,
     -95.559141
    ],
    "fema_zone_2020": "AE",
    "firm_panel": "48039C0420K",
    "firm_effective": "30 Dec 2020",
    "nearest_published_bfe_ft_navd88": 28.0,
    "nearest_bfe_line_ft_away": 1594,
    "nearest_water": [
     {
      "name": null,
      "type": "water",
      "ft": 38,
      "m": 12
     },
     {
      "name": "Mill Bayou",
      "type": "river",
      "ft": 112,
      "m": 34
     }
    ]
   },
   "geometry": {
    "type": "Polygon",
    "coordinates": [
     [
      [
       -95.55862500890512,
       29.14141961014516
      ],
      [
       -95.5591830034401,
       29.1405594823336
      ],
      [
       -95.5593331352382,
       29.140328064723434
      ],
      [
       -95.55935014865865,
       29.140334509208646
      ],
      [
       -95.55937947534633,
       29.14034522033273
      ],
      [
       -95.55940901173422,
       29.140351424140448
      ],
      [
       -95.5594394528221,
       29.140355362903986
      ],
      [
       -95.55946193404877,
       29.140356544916617
      ],
      [
       -95.55947081362604,
       29.14035701805336
      ],
      [
       -95.55949022078381,
       29.14035521206066
      ],
      [
       -95.55950139887679,
       29.140354171124866
      ],
      [
       -95.55951908704712,
       29.140533812873294
      ],
      [
       -95.55961598968399,
       29.141517942193758
      ],
      [
       -95.55958737874491,
       29.14152976631381
      ],
      [
       -95.5595303707384,
       29.14154890462625
      ],
      [
       -95.55950101089924,
       29.14155622824987
      ],
      [
       -95.55941100789191,
       29.141578247786946
      ],
      [
       -95.55938110936796,
       29.141583327734843
      ],
      [
       -95.55928916609369,
       29.14159184644767
      ],
      [
       -95.55925840064697,
       29.14159468958401
      ],
      [
       -95.55919726477539,
       29.141595861578914
      ],
      [
       -95.5591660756231,
       29.141594197268997
      ],
      [
       -95.55913552311418,
       29.141592528637936
      ],
      [
       -95.5591050824567,
       29.141588597047498
      ],
      [
       -95.55907453723279,
       29.14158692588237
      ],
      [
       -95.55904409660948,
       29.14158299337607
      ],
      [
       -95.55898341967615,
       29.141570629018776
      ],
      [
       -95.55895388296321,
       29.141564425117284
      ],
      [
       -95.55892445275967,
       29.141555964438002
      ],
      [
       -95.55889486186678,
       29.141547512238258
      ],
      [
       -95.55886623215176,
       29.14153903702306
      ],
      [
       -95.55883754746951,
       29.141528306274374
      ],
      [
       -95.55880966744186,
       29.14151755929923
      ],
      [
       -95.5587818884897,
       29.14150456443384
      ],
      [
       -95.55875416584448,
       29.141493816097096
      ],
      [
       -95.55872714193313,
       29.141478543292074
      ],
      [
       -95.55870096824945,
       29.141465514060215
      ],
      [
       -95.55867490531406,
       29.141450224550503
      ],
      [
       -95.5586502766051,
       29.141434910711187
      ],
      [
       -95.55862500890512,
       29.14141961014516
      ]
     ]
    ]
   }
  },
  {
   "type": "Feature",
   "id": "lot2",
   "properties": {
    "lot": 2,
    "listing_name": "336 Wagon Wheel Trail W",
    "asking_price_usd": 45000,
    "pid": 183367,
    "geo_id": "1533-0167-000",
    "situs_of_record": "336 WAGON WHEEL TRAIL",
    "legal_description": "BAR X RANCH (A0038 J B BAILEY) LOT 167 ACRES 1.",
    "acres_of_record": 1.0,
    "gis_polygon_acres": 0.872,
    "bbox_ft": [
     424,
     187
    ],
    "bcad_appraised_usd": 36000,
    "deed_reference": "V1523P212",
    "subdivision": "Bar-X Ranch #1",
    "plat": "16/104 (9 Jun 1980)",
    "recorded_restrictions": "1515/679 (+ drainage easements 1712/500)",
    "centroid": [
     29.140524,
     -95.541472
    ],
    "fema_zone_2020": "AE",
    "firm_panel": "48039C0420K",
    "firm_effective": "30 Dec 2020",
    "nearest_published_bfe_ft_navd88": 28.0,
    "nearest_bfe_line_ft_away": 1010,
    "nearest_water": [
     {
      "name": null,
      "type": "water",
      "ft": 50,
      "m": 15
     },
     {
      "name": null,
      "type": "water",
      "ft": 1225,
      "m": 373
     }
    ]
   },
   "geometry": {
    "type": "Polygon",
    "coordinates": [
     [
      [
       -95.54059385796918,
       29.140470541249226
      ],
      [
       -95.54060153799533,
       29.140450101626087
      ],
      [
       -95.54071208610401,
       29.140172860528672
      ],
      [
       -95.54192433471366,
       29.140494915514708
      ],
      [
       -95.54191563754394,
       29.140519885776545
      ],
      [
       -95.54190763671248,
       29.140547108376065
      ],
      [
       -95.54189974710833,
       29.14057206710843
      ],
      [
       -95.54189254414658,
       29.140599260774877
      ],
      [
       -95.5418854519571,
       29.140624204103386
      ],
      [
       -95.54187266200972,
       29.140678573816093
      ],
      [
       -95.54186999140283,
       29.14068764461009
      ],
      [
       -95.54059385796918,
       29.140470541249226
      ]
     ]
    ]
   }
  },
  {
   "type": "Feature",
   "id": "lot3",
   "properties": {
    "lot": 3,
    "listing_name": "Lot 29 Broken Arrow Trail",
    "asking_price_usd": 49000,
    "pid": 186219,
    "geo_id": "1549-0029-000",
    "situs_of_record": "HIGHWAY 35",
    "legal_description": "BAR X RANCH SEC 16 (A0038 J B BAILEY) BLK 1 LOT 29 ACRES 1.3",
    "acres_of_record": 1.3,
    "gis_polygon_acres": 1.166,
    "bbox_ft": [
     370,
     354
    ],
    "bcad_appraised_usd": 51870,
    "deed_reference": "V268P248",
    "subdivision": "Bar-X Ranch #16",
    "plat": "17/219 (23 Jul 1984)",
    "recorded_restrictions": "84-29/885",
    "centroid": [
     29.144419,
     -95.543456
    ],
    "fema_zone_2020": "AE",
    "firm_panel": "48039C0420K",
    "firm_effective": "30 Dec 2020",
    "nearest_published_bfe_ft_navd88": 28.0,
    "nearest_bfe_line_ft_away": 2477,
    "nearest_water": [
     {
      "name": null,
      "type": "water",
      "ft": 47,
      "m": 14
     },
     {
      "name": null,
      "type": "water",
      "ft": 1103,
      "m": 336
     }
    ]
   },
   "geometry": {
    "type": "Polygon",
    "coordinates": [
     [
      [
       -95.54329275219453,
       29.144620881112516
      ],
      [
       -95.54330328429477,
       29.144566555598477
      ],
      [
       -95.54330823154584,
       29.14453263034593
      ],
      [
       -95.54331242349323,
       29.144500980227246
      ],
      [
       -95.54331788222497,
       29.144435470917646
      ],
      [
       -95.54331931743069,
       29.144370046750442
      ],
      [
       -95.54331674725212,
       29.144304688336433
      ],
      [
       -95.54331112304459,
       29.14423939057761
      ],
      [
       -95.54329053870738,
       29.14412702439013
      ],
      [
       -95.54318388278342,
       29.143734377169302
      ],
      [
       -95.54433828862554,
       29.14468446888399
      ],
      [
       -95.54434521330928,
       29.144711404547106
      ],
      [
       -95.54329275219453,
       29.144620881112516
      ]
     ]
    ]
   }
  },
  {
   "type": "Feature",
   "id": "lot4",
   "properties": {
    "lot": 4,
    "listing_name": "750 Wagon Wheel Trail",
    "asking_price_usd": 58000,
    "pid": 183332,
    "geo_id": "1533-0132-000",
    "situs_of_record": "750 WAGON WHEEL TRAIL",
    "legal_description": "BAR X RANCH (A0038 J B BAILEY) LOT 132 ACRES 1.",
    "acres_of_record": 1.0,
    "gis_polygon_acres": 0.955,
    "bbox_ft": [
     479,
     123
    ],
    "bcad_appraised_usd": 50000,
    "deed_reference": "V1729P804",
    "subdivision": "Bar-X Ranch #1",
    "plat": "16/104 (9 Jun 1980)",
    "recorded_restrictions": "1515/679 (+ drainage easements 1712/500)",
    "centroid": [
     29.130575,
     -95.541987
    ],
    "fema_zone_2020": "AE",
    "firm_panel": "48039C0420K",
    "firm_effective": "30 Dec 2020",
    "nearest_published_bfe_ft_navd88": 28.0,
    "nearest_bfe_line_ft_away": 1492,
    "nearest_water": [
     {
      "name": "Flag Pond",
      "type": "water",
      "ft": 11,
      "m": 3
     },
     {
      "name": "Flag Lake Levee",
      "type": "dam",
      "ft": 11,
      "m": 3
     }
    ]
   },
   "geometry": {
    "type": "Polygon",
    "coordinates": [
     [
      [
       -95.54118875115444,
       29.13049549218277
      ],
      [
       -95.54267017352417,
       29.130429045956493
      ],
      [
       -95.54267125525209,
       29.130440307621562
      ],
      [
       -95.5426741905502,
       29.13049437524683
      ],
      [
       -95.542676461723,
       29.13052139336082
      ],
      [
       -95.54267937784155,
       29.130548402943077
      ],
      [
       -95.5426855188091,
       29.13060241387375
      ],
      [
       -95.54268923647712,
       29.130629405448886
      ],
      [
       -95.5426902672701,
       29.130645171319433
      ],
      [
       -95.54261445548977,
       29.130651649834444
      ],
      [
       -95.54126573789553,
       29.130766923629682
      ],
      [
       -95.54124289834797,
       29.130699696217178
      ],
      [
       -95.54122889705847,
       29.130652604485785
      ],
      [
       -95.54122105963926,
       29.130627940518046
      ],
      [
       -95.54120028942363,
       29.130547146440716
      ],
      [
       -95.54119486933793,
       29.130522448667378
      ],
      [
       -95.54118875115444,
       29.13049549218277
      ]
     ]
    ]
   }
  }
 ]
}